OSCAR 7 (AO-7)          
1 07530U 74089B   19163.87852241 -.00000045  00000-0  65953-6 0  9994
2 07530 101.7443 131.5991 0012267   0.5674  54.3120 12.53638369 39795
UOSAT 2 (UO-11)         
1 14781U 84021B   19163.89789259  .00000052  00000-0  12522-4 0  9996
2 14781  97.6109 188.8907 0008058 349.5086  10.5959 14.83089691876900
LUSAT (LO-19)           
1 20442U 90005G   19163.80365702 -.00000010  00000-0  12513-4 0  9995
2 20442  98.6483 105.8135 0012030 161.3993 198.7633 14.32926698535531
ITAMSAT (IO-26)         
1 22826U 93061D   19163.90560930 -.00000009  00000-0  14537-4 0  9995
2 22826  98.8966 152.4028 0009124  12.0152 348.1246 14.30393786341074
RADIO ROSTO (RS-15)     
1 23439U 94085A   19163.92860314 -.00000038  00000-0  13067-3 0  9992
2 23439  64.8151 125.4437 0146224 114.3432 247.2836 11.27568120  7249
JAS-2 (FO-29)           
1 24278U 96046B   19163.85572374 -.00000009  00000-0  29894-4 0  9995
2 24278  98.5362 318.0584 0349285 255.1117 101.1102 13.53091887126763
TECHSAT 1B (GO-32)      
1 25397U 98043D   19163.85647243 -.00000028  00000-0  71025-5 0  9990
2 25397  98.6885 104.0713 0002328  69.8181 290.3248 14.23666470 87042
ISS (ZARYA)             
1 25544U 98067A   19164.29818287  .00002091  00000-0  42902-4 0  9999
2 25544  51.6457  20.6007 0007856  43.3092 286.3181 15.51199483174649
PCSAT (NO-44)           
1 26931U 01043C   19163.90754221 -.00000041  00000-0  16175-4 0  9999
2 26931  67.0519  18.6071 0006613 279.5298  80.5055 14.30544298924077
SAUDISAT 1C (SO-50)     
1 27607U 02058C   19163.92137983 -.00000060  00000-0  12563-4 0  9997
2 27607  64.5559  67.2387 0081537 257.6348 101.5619 14.75551721886058
CUTE-1 (CO-55)          
1 27844U 03031E   19163.88393588  .00000043  00000-0  38817-4 0  9992
2 27844  98.6835 172.1845 0010832  52.7874 307.4290 14.22180553827464
CUBESAT XI-IV (CO-57)   
1 27848U 03031J   19163.87442021  .00000034  00000-0  35050-4 0  9998
2 27848  98.6914 172.6740 0010860  62.8055 297.4228 14.21775291827310
MOZHAYETS 4 (RS-22)     
1 27939U 03042A   19164.24964980  .00000061  00000-0  19501-4 0  9999
2 27939  98.0395 300.1725 0014299  85.4386 274.8455 14.66783942839749
CUBESAT XI-V            
1 28895U 05043F   19164.38120536  .00000092  00000-0  26556-4 0  9992
2 28895  97.9584 307.2944 0016979  13.5118 346.6536 14.63667332726702
CUTE-1.7+APD II (CO-65) 
1 32785U 08021C   19163.76906939  .00000153  00000-0  22188-4 0  9999
2 32785  97.5490 163.7630 0011515 284.6635  75.3306 14.88308227602739
DELFI-C3 (DO-64)        
1 32789U 08021G   19164.10675050  .00000792  00000-0  56980-4 0  9995
2 32789  97.4643 213.9411 0013432 138.9522 221.2720 15.06939082606122
SEEDS II (CO-66)        
1 32791U 08021J   19163.59614718  .00000140  00000-0  19628-4 0  9999
2 32791  97.5275 169.5657 0011715 256.8552 103.1359 14.90817454603123
YUBILEINY (RS-30)       
1 32953U 08025A   19164.25217273  .00000021  00000-0  75656-4 0  9993
2 32953  82.5001 148.1480 0019921 137.6291 222.6328 12.43089927501632
KKS-1 (KISEKI)          
1 33499U 09002H   19163.91031042  .00000073  00000-0  18822-4 0  9994
2 33499  98.3507   2.4339 0008278 218.9245 141.1368 14.75440465557943
SWISSCUBE               
1 35932U 09051B   19164.03154992  .00000124  00000-0  39041-4 0  9999
2 35932  98.5874 329.8390 0007762 173.6291 186.5006 14.56283559515959
BEESAT-1                
1 35933U 09051C   19163.69134618  .00000101  00000-0  33781-4 0  9994
2 35933  98.5901 331.2444 0005663 184.9122 175.2020 14.56372726515938
ITUPSAT1                
1 35935U 09051E   19163.74555999  .00000060  00000-0  24893-4 0  9999
2 35935  98.6012 331.5388 0007997 185.4788 174.6322 14.55532873515747
XIWANG-1 (HOPE-1)       
1 36122U 09072B   19163.73137402 -.00000045  00000-0 -75138-5 0  9999
2 36122 100.0725 166.3913 0007639   5.8168 354.3037 13.16349735456094
JUGNU                   
1 37839U 11058B   19161.06731455  .00000303  00000-0  19646-4 0  9990
2 37839  19.9627  27.0744 0018910 231.8973 293.9955 14.12652011396038
SRMSAT                  
1 37841U 11058D   19163.07696667  .00000282  00000-0  99804-5 0  9992
2 37841  19.9727  71.5238 0012056 124.0741   2.4704 14.10633220395757
M-CUBED & EXP-1 PRIME   
1 37855U 11061F   19163.81761226  .00000804  00000-0  48061-4 0  9995
2 37855 101.7157  56.4018 0173769  94.1984 267.9107 15.05397954415420
STRAND-1                
1 39090U 13009E   19163.85972574  .00000035  00000-0  27585-4 0  9990
2 39090  98.4891   9.9167 0008227 312.0207  48.0277 14.35086595329534
SOMP                    
1 39134U 13015E   19164.09692014  .00000857  00000-0  48553-4 0  9991
2 39134  64.8640  38.5647 0029873 303.9219  55.9068 15.20142946339742
BEESAT-3                
1 39135U 13015F   19164.07507483  .00000801  00000-0  49586-4 0  9991
2 39135  64.8692  56.8532 0020138 323.3780  36.5968 15.17452935339393
BEESAT-2                
1 39136U 13015G   19163.91216660  .00000677  00000-0  44079-4 0  9991
2 39136  64.8700  61.1837 0019054 302.2276  57.7002 15.16881446338904
ZACUBE-1 (TSHEPISOSAT)  
1 39417U 13066B   19164.03019101  .00000174  00000-0  28180-4 0  9991
2 39417  97.5623 177.8502 0060270  53.5511 307.1237 14.81112141300205
GOMX-1                  
1 39430U 13066Q   19164.41114578  .00000168  00000-0  39940-4 0  9991
2 39430  97.7464 121.3107 0149776 271.0708  87.3332 14.59250532295831
CUBEBUG-2 (LO-74)       
1 39440U 13066AA  19163.92049834  .00000158  00000-0  28720-4 0  9992
2 39440  97.6016 162.6987 0081850 103.4671 257.5677 14.75850372297924
FUNCUBE-1 (AO-73)       
1 39444U 13066AE  19164.03387832  .00000219  00000-0  33204-4 0  9993
2 39444  97.5605 179.7936 0059277  47.6123 313.0086 14.81930024299095
UWE-3                   
1 39446U 13066AG  19163.93450913  .00000160  00000-0  27775-4 0  9995
2 39446  97.5808 169.7269 0071653  79.1306 281.7959 14.78384790297823
SPROUT                  
1 39770U 14029E   19164.24947969  .00000384  00000-0  48618-4 0  9999
2 39770  97.8837 267.5762 0010232 100.5499 259.6943 14.87330587274020
UNISAT-6                
1 40012U 14033C   19163.63401187  .00000134  00000-0  27204-4 0  9995
2 40012  97.7586  30.5070 0059637 116.7024 244.0307 14.73974585267791
DUCHIFAT-1              
1 40021U 14033M   19164.03963216  .00000180  00000-0  24277-4 0  9994
2 40021  97.9242  88.6145 0014456  70.6242 289.6536 14.90622510270700
QB50P1                  
1 40025U 14033R   19164.39119104  .00000220  00000-0  29412-4 0  9997
2 40025  97.9065  84.0838 0013953  78.0774 282.2007 14.88938549270531
NUDT-PHONESAT           
1 40900U 15049B   19164.38915801  .00001645  00000-0  73416-4 0  9999
2 40900  97.4369 173.7769 0012190 195.9011 271.6282 15.22754322206854
ZDPS 2A                 
1 40901U 15049C   19164.41062509  .00000832  00000-0  44559-4 0  9995
2 40901  97.4594 170.3109 0012174 215.9600 280.9515 15.17711966206432
ZDPS 2B                 
1 40902U 15049D   19164.36387853  .00000756  00000-0  41001-4 0  9996
2 40902  97.4538 167.7854 0012291 213.3097 253.8677 15.17520153206401
XW-2A                   
1 40903U 15049E   19164.32184119  .00001523  00000-0  37894-4 0  9991
2 40903  97.3382 207.0552 0013979 157.7881 264.8175 15.41817536209428
KAITUO 1A               
1 40904U 15049F   19164.39169293  .00000372  00000-0  23195-4 0  9995
2 40904  97.4664 166.4917 0013273 221.8705 269.4942 15.15355946206198
2015-049G               
1 40905U 15049G   19164.40312133  .00000613  00000-0  37013-4 0  9993
2 40905  97.4699 164.0656 0014489 216.6344 279.7325 15.14286192206073
XW-2C                   
1 40906U 15049H   19164.38913488  .00000569  00000-0  33338-4 0  9997
2 40906  97.4668 166.5561 0013760 212.4198 253.5529 15.15663385206197
XW-2D                   
1 40907U 15049J   19164.36768645  .00000287  00000-0  18447-4 0  9990
2 40907  97.4649 166.2128 0013146 209.7926 257.6820 15.15847303206204
LILACSAT-2              
1 40908U 15049K   19164.45225395 -.00000013  00000-0  28855-5 0  9994
2 40908  97.4783 165.1636 0014736 216.2563 313.2509 15.13792079206011
XW-2F                   
1 40910U 15049M   19164.19516383  .00000970  00000-0  51979-4 0  9991
2 40910  97.4622 168.0070 0013748 203.4183 222.5437 15.17275955206181
XW-2B                   
1 40911U 15049N   19164.40592542  .00000749  00000-0  42675-4 0  9994
2 40911  97.4678 166.8956 0012976 209.6844 289.5433 15.15781541206108
KAITUO 1B               
1 40912U 15049P   19164.29875199  .00000776  00000-0  39608-4 0  9996
2 40912  97.4495 171.7237 0014608 184.9900 232.1512 15.19581910206491
TIANWANG 1C (TW-1C)     
1 40926U 15051B   19164.36997891  .00009380  00000-0  13800-3 0  9991
2 40926  97.1365 210.5523 0009029  45.3926  10.5129 15.55619144209337
TIANWANG 1A (TW-1A)     
1 40928U 15051D   19164.35657587  .00002841  00000-0  71331-4 0  9996
2 40928  97.1453 195.7795 0013114  92.4056 323.8497 15.40737268208350
LAPAN-A2                
1 40931U 15052B   19164.21577604  .00000713  00000-0  10364-4 0  9992
2 40931   5.9987  95.6859 0012679  78.0188 282.1472 14.76608103200459
E-ST@R-II               
1 41459U 16025D   19164.35440930  .00001129  00000-0  61707-4 0  9994
2 41459  98.1011 250.5933 0168185  16.9383 343.7364 15.05447062171745
AAUSAT 4                
1 41460U 16025E   19164.20395759  .00000763  00000-0  42394-4 0  9992
2 41460  98.0937 251.6579 0158041  10.2034 350.2256 15.07313087171846
NUSAT-1 (FRESCO)        
1 41557U 16033B   19164.40927096  .00000893  00000-0  36234-4 0  9995
2 41557  97.4178 251.9395 0012661 322.2771  37.7579 15.27192889169280
BEESAT-4                
1 41619U 16040W   19164.12787175  .00001147  00000-0  51509-4 0  9998
2 41619  97.3678 226.4553 0012609  49.6085 310.6250 15.23106580153018
CAS-2T & KS-1Q          
1 41847U 16066G   19164.11168349  .00000051  00000-0  19046-4 0  9997
2 41847  98.7060 204.7507 0364833 251.4970 104.6252 14.37986855136192
NAYIF-1 (EO-88)         
1 42017U 17008BX  19163.85963718  .00001247  00000-0  52046-4 0  9992
2 42017  97.4034 231.0138 0006296 173.8859 186.2457 15.25504307129035
MAX VALIER SAT          
1 42778U 17036P   19163.74305518  .00000728  00000-0  34875-4 0  9996
2 42778  97.3548 221.5408 0010807 241.2329 118.7822 15.21999132109334
RADFXSAT (FOX-1B)       
1 43017U 17073E   19163.71038868  .00000228  00000-0  23358-4 0  9991
2 43017  97.7237  85.3056 0258247 177.5885 182.6642 14.78541069 84374
FOX-1D (AO-92)          
1 43137U 18004AC  19164.17768753  .00000769  00000-0  35272-4 0  9991
2 43137  97.4878 231.9926 0007632 277.0353  83.0016 15.23445059 78652
ES'HAIL 2               
1 43700U 18090A   19163.86127918  .00000134  00000-0  00000-0 0  9992
2 43700   0.0187  22.7710 0001334  57.7533 156.1777  1.00274047  1990
FOX-1CLIFF (AO-95)      
1 43770U 18099N   19163.87881747  .00000599  00000-0  60376-4 0  9997
2 43770  97.7454 235.8221 0014410 359.8030   0.3182 14.94760230 28550
ITASAT 1                
1 43786U 18099AE  19163.76316879  .00000189  00000-0  22497-4 0  9998
2 43786  97.7470 235.8560 0014966 354.2553   5.8493 14.95133963 28548
JY1SAT (JO-97)          
1 43803U 18099AX  19163.88228897  .00000646  00000-0  63848-4 0  9996
2 43803  97.7428 235.8994 0014841 354.6638   5.4422 14.95262319 28559
